[{"OBJECT_NAME":"ION SCV-017","OBJECT_ID":"2025-052W","EPOCH":"2026-03-09T17:11:44.577024","MEAN_MOTION":15.26881798,"ECCENTRICITY":0.0023746,"INCLINATION":97.4016,"RA_OF_ASC_NODE":324.7516,"ARG_OF_PERICENTER":44.9875,"MEAN_ANOMALY":315.3282,"EPHEMERIS_TYPE":0,"CLASSIFICATION_TYPE":"U","NORAD_CAT_ID":63230,"ELEMENT_SET_NO":999,"REV_AT_EPOCH":5485,"BSTAR":0.00024539061,"MEAN_MOTION_DOT":6.457e-5,"MEAN_MOTION_DDOT":0},{"OBJECT_NAME":"STARLINK-34596","OBJECT_ID":"2025-144J","EPOCH":"2026-03-09T21:39:20.340000","MEAN_MOTION":15.30205408,"ECCENTRICITY":0.0001675,"INCLINATION":53.1598,"RA_OF_ASC_NODE":180.1105,"ARG_OF_PERICENTER":49.236,"MEAN_ANOMALY":310.8786,"EPHEMERIS_TYPE":0,"CLASSIFICATION_TYPE":"U","NORAD_CAT_ID":64732,"ELEMENT_SET_NO":999,"REV_AT_EPOCH":3974,"BSTAR":0.0014048153,"MEAN_MOTION_DOT":0.00041487,"MEAN_MOTION_DDOT":0}]
